[{"OBJECT_NAME":"TOMORROW-S4","OBJECT_ID":"2024-247K","EPOCH":"2026-03-09T12:47:35.836224","MEAN_MOTION":15.27717249,"ECCENTRICITY":0.00044343,"INCLINATION":44.9818,"RA_OF_ASC_NODE":117.9996,"ARG_OF_PERICENTER":210.4078,"MEAN_ANOMALY":149.6548,"EPHEMERIS_TYPE":0,"CLASSIFICATION_TYPE":"U","NORAD_CAT_ID":62386,"ELEMENT_SET_NO":999,"REV_AT_EPOCH":6770,"BSTAR":0.00046927249,"MEAN_MOTION_DOT":0.00012677,"MEAN_MOTION_DDOT":0},{"OBJECT_NAME":"STARLINK-34430","OBJECT_ID":"2025-130U","EPOCH":"2026-03-09T08:13:16.279392","MEAN_MOTION":15.3020213,"ECCENTRICITY":0.00015182,"INCLINATION":53.1585,"RA_OF_ASC_NODE":89.8799,"ARG_OF_PERICENTER":88.3204,"MEAN_ANOMALY":271.7971,"EPHEMERIS_TYPE":0,"CLASSIFICATION_TYPE":"U","NORAD_CAT_ID":64456,"ELEMENT_SET_NO":999,"REV_AT_EPOCH":4065,"BSTAR":0.00074907411,"MEAN_MOTION_DOT":0.00021893,"MEAN_MOTION_DDOT":0}]
