TOMORROW-S4             
1 62386U 24247K   26068.53305366  .00012677  00000+0  46927-3 0  9990
2 62386  44.9818 117.9996 0004434 210.4078 149.6548 15.27717249 67702
STARLINK-34430          
1 64456U 25130U   26068.34254953  .00021893  00000+0  74907-3 0  9995
2 64456  53.1585  89.8799 0001518  88.3204 271.7971 15.30202130 40650
